[{"OBJECT_NAME":"SHIYAN-3 (SY-3)","OBJECT_ID":"2008-056A","EPOCH":"2026-03-09T16:28:21.411552","MEAN_MOTION":14.30765435,"ECCENTRICITY":0.00146908,"INCLINATION":98.6178,"RA_OF_ASC_NODE":96.1558,"ARG_OF_PERICENTER":69.2006,"MEAN_ANOMALY":291.0749,"EPHEMERIS_TYPE":0,"CLASSIFICATION_TYPE":"U","NORAD_CAT_ID":33433,"ELEMENT_SET_NO":999,"REV_AT_EPOCH":90457,"BSTAR":0.00010019007,"MEAN_MOTION_DOT":2.19e-6,"MEAN_MOTION_DDOT":0},{"OBJECT_NAME":"CZ-6A DEB","OBJECT_ID":"2024-140JA","EPOCH":"2026-03-09T00:41:36.610080","MEAN_MOTION":14.35291538,"ECCENTRICITY":0.00251172,"INCLINATION":88.9617,"RA_OF_ASC_NODE":282.2481,"ARG_OF_PERICENTER":182.5364,"MEAN_ANOMALY":177.5711,"EPHEMERIS_TYPE":0,"CLASSIFICATION_TYPE":"U","NORAD_CAT_ID":60847,"ELEMENT_SET_NO":999,"REV_AT_EPOCH":8191,"BSTAR":0.0017293339,"MEAN_MOTION_DOT":4.984e-5,"MEAN_MOTION_DDOT":0}]
